[{"OBJECT_NAME":"STARLINK-31750","OBJECT_ID":"2024-074U","EPOCH":"2026-03-09T02:22:20.214912","MEAN_MOTION":15.27567967,"ECCENTRICITY":0.00013507,"INCLINATION":43.0053,"RA_OF_ASC_NODE":346.8855,"ARG_OF_PERICENTER":260.2183,"MEAN_ANOMALY":99.8516,"EPHEMERIS_TYPE":0,"CLASSIFICATION_TYPE":"U","NORAD_CAT_ID":59552,"ELEMENT_SET_NO":999,"REV_AT_EPOCH":10592,"BSTAR":-7.2379796e-5,"MEAN_MOTION_DOT":-2.253e-5,"MEAN_MOTION_DDOT":0},{"OBJECT_NAME":"UNKNOWN","OBJECT_ID":"","EPOCH":"2026-03-09T10:30:41.440032","MEAN_MOTION":14.01503823,"ECCENTRICITY":0.0581998,"INCLINATION":65.7904,"RA_OF_ASC_NODE":128.3867,"ARG_OF_PERICENTER":3.0119,"MEAN_ANOMALY":357.4216,"EPHEMERIS_TYPE":0,"CLASSIFICATION_TYPE":"U","NORAD_CAT_ID":87690,"ELEMENT_SET_NO":999,"REV_AT_EPOCH":61952,"BSTAR":0.00073444,"MEAN_MOTION_DOT":5.044e-5,"MEAN_MOTION_DDOT":0}]
